ONEWEB-0401             
1 50481U 21132N   24060.61667517  .00000002  00000+0 -26951-4 0  9997
2 50481  87.9220 142.3655 0002216 100.3868 259.7514 13.18686633111091
ONEWEB-0402             
1 50482U 21132P   24060.50601695 -.00000004  00000+0 -43907-4 0  9994
2 50482  87.9217 142.3843 0002158  88.8187 271.3192 13.18686798111102
ONEWEB-0403             
1 50483U 21132Q   24060.60558475  .00001368  00000+0  34354-2 0  9999
2 50483  87.9219 142.3701 0002273 108.2821 251.8559 13.18696276111076
ONEWEB-0404             
1 50484U 21132R   24060.60096420 -.00000392  00000+0 -11427-2 0  9991
2 50484  87.9028 187.7735 0002063 120.3155 239.8177 13.11416170105786
ONEWEB-0405             
1 50485U 21132S   24060.62141635 -.00000048  00000+0 -15516-3 0  9995
2 50485  87.9222 142.3563 0002353  99.7772 260.3626 13.18686688111476
ONEWEB-0406             
1 50486U 21132T   24060.61034261 -.00000042  00000+0 -14013-3 0  9996
2 50486  87.9225 142.3676 0001961 118.2906 241.8425 13.18687870111100
ONEWEB-0407             
1 50487U 21132U   24060.60402073 -.00000019  00000+0 -80291-4 0  9992
2 50487  87.9220 142.3758 0002180 104.0073 256.1302 13.18687129111042
ONEWEB-0409             
1 50488U 21132V   24060.37044312 -.00000319  00000+0 -93503-3 0  9997
2 50488  87.9017 187.8251 0001823 128.9048 231.2243 13.11414929105645
